CONNECTA IOT-2          
1 60522U 24149BG  26068.80712403  .00006116  00000+0  26280-3 0  9996
2 60522  97.3884 148.5070 0005337 325.6165  34.4726 15.23021673 86760
YAOGAN-43 03B           
1 61618U 24190B   26068.54371741  .00011265  00000+0  46414-3 0  9998
2 61618  34.9874 104.3622 0006549 178.8126 181.2605 15.23292973 76665
